ALSAT-3B                
1 67646U 26021A   26060.83143021  .00008614  00000+0  35963-3 0  9993
2 67646  97.4688 135.2037 0013291 157.5739 202.6082 15.23815692  4520
CZ-2C R/B               
1 67647U 26021B   26060.83467199  .00014194  00000+0  42613-3 0  9999
2 67647  97.6527 136.1504 0151911  38.6426 322.5564 15.23853743  4502
STARLINK-36719          
1 67648U 26022A   26060.65820326  .00235330  00000+0  15326-2 0  9993
2 67648  97.2830  94.2247 0001634  63.5874 296.5559 15.75233624  4280
STARLINK-36342          
1 67649U 26022B   26060.59396972  .00251644  00000+0  16391-2 0  9991
2 67649  97.2838  94.1592 0001192  90.4301 269.7101 15.75185256  4275
STARLINK-36703          
1 67650U 26022C   26060.65643814  .00232233  00000+0  15157-2 0  9992
2 67650  97.2839  94.2273 0001114  83.3745 276.7647 15.75193407  4283
STARLINK-36696          
1 67651U 26022D   26060.59115470  .00370470  00000+0  23638-2 0  9997
2 67651  97.2829  94.1622 0002026  63.9354 296.2120 15.75333485  4277
STARLINK-36699          
1 67652U 26022E   26060.65396737  .00371322  00000+0  23835-2 0  9998
2 67652  97.2837  94.2306 0001216  91.0529 269.0875 15.75191616  4287
STARLINK-36694          
1 67653U 26022F   26060.58832727  .00234530  00000+0  15308-2 0  9990
2 67653  97.2836  94.1666 0002256  77.6117 282.5400 15.75184057  4277
STARLINK-36620          
1 67654U 26022G   26060.52444305  .00326277  00000+0  20938-2 0  9991
2 67654  97.2819  94.0990 0001459  56.0567 304.0837 15.75323190  4268
STARLINK-36720          
1 67655U 26022H   26060.64973276  .00312726  00000+0  20206-2 0  9991
2 67655  97.2833  94.2356 0000980  88.3647 271.7730 15.75202063  4287
STARLINK-36688          
1 67656U 26022J   26060.64903237  .00190916  00000+0  12530-2 0  9998
2 67656  97.2834  94.2359 0002338  64.2139 295.9367 15.75177842  4280
STARLINK-36706          
1 67657U 26022K   26060.64761531  .00374202  00000+0  23996-2 0  9998
2 67657  97.2840  94.2377 0000956  98.6727 261.4646 15.75206066  4285
